{"type": "FeatureCollection", "features": [ {"type": "Feature", "properties": {"norad_id": 38552, "name": "METEOSAT-10 (MSG-3)", "group": "weather", "lat": -3.8268613888360035, "lon": -2.003720339969525, "alt_km": 35782.460818869666, "timestamp": "2025-12-27T17:24:57.035544+00:00", "meta": {"OBJECT_NAME": "METEOSAT-10 (MSG-3)", "OBJECT_ID": "2012-035B", "EPOCH": "2025-12-26T23:18:23.522112", "MEAN_MOTION": 1.0026664, "ECCENTRICITY": 0.0001553, "INCLINATION": 4.2601, "RA_OF_ASC_NODE": 61.6826, "ARG_OF_PERICENTER": 264.1949, "MEAN_ANOMALY": 119.6815, "EPHEMERIS_TYPE": 0, "CLASSIFICATION_TYPE": "U", "NORAD_CAT_ID": 38552, "ELEMENT_SET_NO": 999, "REV_AT_EPOCH": 4913, "BSTAR": 0, "MEAN_MOTION_DOT": 1.4e-07, "MEAN_MOTION_DDOT": 0}, "tle": {"line1": "1 38552U 12035B   25360.97110558  .00000014  00000+0  00000+0 0  9999", "line2": "2 38552   4.2601  61.6826 0001553 264.1949 119.6815  1.00266640 49139"}}, "geometry": {"type": "Point", "coordinates": [-2.003720339969525, -3.8268613888360035]}}, {"type": "Feature", "properties": {"norad_id": 38771, "name": "METOP-B", "group": "weather", "lat": 47.81360663704316, "lon": 41.727537078529345, "alt_km": 815.237811983644, "timestamp": "2025-12-27T17:24:57.035558+00:00", "meta": {"OBJECT_NAME": "METOP-B", "OBJECT_ID": "2012-049A", "EPOCH": "2025-12-27T10:25:50.018016", "MEAN_MOTION": 14.2141394, "ECCENTRICITY": 0.0003319, "INCLINATION": 98.6779, "RA_OF_ASC_NODE": 51.1428, "ARG_OF_PERICENTER": 113.835, "MEAN_ANOMALY": 246.3175, "EPHEMERIS_TYPE": 0, "CLASSIFICATION_TYPE": "U", "NORAD_CAT_ID": 38771, "ELEMENT_SET_NO": 999, "REV_AT_EPOCH": 68886, "BSTAR": 8.6292e-05, "MEAN_MOTION_DOT": 1.45e-06, "MEAN_MOTION_DDOT": 0}, "tle": {"line1": "1 38771U 12049A   25361.43460669  .00000145  00000+0  86292-4 0  9997", "line2": "2 38771  98.6779  51.1428 0003319 113.8350 246.3175 14.21413940688865"}}, "geometry": {"type": "Point", "coordinates": [41.727537078529345, 47.81360663704316]}}, {"type": "Feature", "properties": {"norad_id": 39216, "name": "INSAT-3D", "group": "weather", "lat": 1.0154678135337563, "lon": 127.2112481788276, "alt_km": 35789.5806115721, "timestamp": "2025-12-27T17:24:57.035574+00:00", "meta": {"OBJECT_NAME": "INSAT-3D", "OBJECT_ID": "2013-038B", "EPOCH": "2025-12-27T10:11:36.454272", "MEAN_MOTION": 1.00272777, "ECCENTRICITY": 0.0001994, "INCLINATION": 1.4809, "RA_OF_ASC_NODE": 84.8274, "ARG_OF_PERICENTER": 159.495, "MEAN_ANOMALY": 134.2917, "EPHEMERIS_TYPE": 0, "CLASSIFICATION_TYPE": "U", "NORAD_CAT_ID": 39216, "ELEMENT_SET_NO": 999, "REV_AT_EPOCH": 4535, "BSTAR": 0, "MEAN_MOTION_DOT": -3.17e-06, "MEAN_MOTION_DDOT": 0}, "tle": {"line1": "1 39216U 13038B   25361.42472748 -.00000317  00000+0  00000+0 0  9991", "line2": "2 39216   1.4809  84.8274 0001994 159.4950 134.2917  1.00272777 45351"}}, "geometry": {"type": "Point", "coordinates": [127.2112481788276, 1.0154678135337563]}}, {"type": "Feature", "properties": {"norad_id": 39260, "name": "FENGYUN 3C", "group": "weather", "lat": -12.394141508894313, "lon": -19.447174404922844, "alt_km": 854.8610400860407, "timestamp": "2025-12-27T17:24:57.035585+00:00", "meta": {"OBJECT_NAME": "FENGYUN 3C", "OBJECT_ID": "2013-052A", "EPOCH": "2025-12-27T12:23:10.905216", "MEAN_MOTION": 14.15700832, "ECCENTRICITY": 0.0015101, "INCLINATION": 98.4781, "RA_OF_ASC_NODE": 338.4751, "ARG_OF_PERICENTER": 153.6212, "MEAN_ANOMALY": 206.5734, "EPHEMERIS_TYPE": 0, "CLASSIFICATION_TYPE": "U", "NORAD_CAT_ID": 39260, "ELEMENT_SET_NO": 999, "REV_AT_EPOCH": 63427, "BSTAR": 8.4727e-05, "MEAN_MOTION_DOT": 1.25e-06, "MEAN_MOTION_DDOT": 0}, "tle": {"line1": "1 39260U 13052A   25361.51609844  .00000125  00000+0  84727-4 0  9994", "line2": "2 39260  98.4781 338.4751 0015101 153.6212 206.5734 14.15700832634278"}}, "geometry": {"type": "Point", "coordinates": [-19.447174404922844, -12.394141508894313]}}, {"type": "Feature", "properties": {"norad_id": 40069, "name": "METEOR-M 2", "group": "weather", "lat": -79.81036322608813, "lon": 34.964498411707666, "alt_km": 829.5343124061401, "timestamp": "2025-12-27T17:24:57.035596+00:00", "meta": {"OBJECT_NAME": "METEOR-M 2", "OBJECT_ID": "2014-037A", "EPOCH": "2025-12-27T12:44:39.289920", "MEAN_MOTION": 14.21391833, "ECCENTRICITY": 0.0005726, "INCLINATION": 98.4924, "RA_OF_ASC_NODE": 338.5497, "ARG_OF_PERICENTER": 164.0565, "MEAN_ANOMALY": 196.0794, "EPHEMERIS_TYPE": 0, "CLASSIFICATION_TYPE": "U", "NORAD_CAT_ID": 40069, "ELEMENT_SET_NO": 999, "REV_AT_EPOCH": 59493, "BSTAR": 2.8862e-05, "MEAN_MOTION_DOT": 2.1e-07, "MEAN_MOTION_DDOT": 0}, "tle": {"line1": "1 40069U 14037A   25361.53101030  .00000021  00000+0  28862-4 0  9996", "line2": "2 40069  98.4924 338.5497 0005726 164.0565 196.0794 14.21391833594934"}}, "geometry": {"type": "Point", "coordinates": [34.964498411707666, -79.81036322608813]}}, {"type": "Feature", "properties": {"norad_id": 40267, "name": "HIMAWARI-8", "group": "weather", "lat": -0.022792050636059023, "lon": 138.3390445608437, "alt_km": 35790.705137647376, "timestamp": "2025-12-27T17:24:57.035608+00:00", "meta": {"OBJECT_NAME": "HIMAWARI-8", "OBJECT_ID": "2014-060A", "EPOCH": "2025-12-26T08:33:59.245344", "MEAN_MOTION": 1.0027063, "ECCENTRICITY": 0.000101, "INCLINATION": 0.0427, "RA_OF_ASC_NODE": 196.506, "ARG_OF_PERICENTER": 108.6661, "MEAN_ANOMALY": 59.0936, "EPHEMERIS_TYPE": 0, "CLASSIFICATION_TYPE": "U", "NORAD_CAT_ID": 40267, "ELEMENT_SET_NO": 999, "REV_AT_EPOCH": 4102, "BSTAR": 0, "MEAN_MOTION_DOT": -2.54e-06, "MEAN_MOTION_DDOT": 0}, "tle": {"line1": "1 40267U 14060A   25360.35693571 -.00000254  00000+0  00000+0 0  9995", "line2": "2 40267   0.0427 196.5060 0001010 108.6661  59.0936  1.00270630 41029"}}, "geometry": {"type": "Point", "coordinates": [138.3390445608437, -0.022792050636059023]}}, {"type": "Feature", "properties": {"norad_id": 40367, "name": "FENGYUN 2G", "group": "weather", "lat": 1.9715491614723093, "lon": 96.91689781191717, "alt_km": 35789.85547102377, "timestamp": "2025-12-27T17:24:57.035620+00:00", "meta": {"OBJECT_NAME": "FENGYUN 2G", "OBJECT_ID": "2014-090A", "EPOCH": "2025-12-27T01:29:24.780768", "MEAN_MOTION": 1.00281225, "ECCENTRICITY": 0.00018247, "INCLINATION": 5.2014, "RA_OF_ASC_NODE": 74.9206, "ARG_OF_PERICENTER": 170.6218, "MEAN_ANOMALY": 331.9129, "EPHEMERIS_TYPE": 0, "CLASSIFICATION_TYPE": "U", "NORAD_CAT_ID": 40367, "ELEMENT_SET_NO": 999, "REV_AT_EPOCH": 4027, "BSTAR": 0, "MEAN_MOTION_DOT": -2.81e-06, "MEAN_MOTION_DDOT": 0}, "tle": {"line1": "1 40367U 14090A   25361.06209237 -.00000281  00000+0  00000+0 0  9990", "line2": "2 40367   5.2014  74.9206 0001824 170.6218 331.9129  1.00281225 40274"}}, "geometry": {"type": "Point", "coordinates": [96.91689781191717, 1.9715491614723093]}}, {"type": "Feature", "properties": {"norad_id": 40732, "name": "METEOSAT-11 (MSG-4)", "group": "weather", "lat": -2.5172953389723385, "lon": 6.898357262662705, "alt_km": 35788.85637372224, "timestamp": "2025-12-27T17:24:57.035633+00:00", "meta": {"OBJECT_NAME": "METEOSAT-11 (MSG-4)", "OBJECT_ID": "2015-034A", "EPOCH": "2025-12-27T04:29:09.250368", "MEAN_MOTION": 1.00272015, "ECCENTRICITY": 6.53e-05, "INCLINATION": 2.7726, "RA_OF_ASC_NODE": 71.9621, "ARG_OF_PERICENTER": 136.4187, "MEAN_ANOMALY": 324.0135, "EPHEMERIS_TYPE": 0, "CLASSIFICATION_TYPE": "U", "NORAD_CAT_ID": 40732, "ELEMENT_SET_NO": 999, "REV_AT_EPOCH": 549, "BSTAR": 0, "MEAN_MOTION_DOT": 8.3e-07, "MEAN_MOTION_DDOT": 0}, "tle": {"line1": "1 40732U 15034A   25361.18691262  .00000083  00000+0  00000+0 0  9990", "line2": "2 40732   2.7726  71.9621 0000653 136.4187 324.0135  1.00272015  5496"}}, "geometry": {"type": "Point", "coordinates": [6.898357262662705, -2.5172953389723385]}}, {"type": "Feature", "properties": {"norad_id": 41105, "name": "ELEKTRO-L 2", "group": "weather", "lat": -6.271518404730099, "lon": -16.741889615695065, "alt_km": 35779.95639857058, "timestamp": "2025-12-27T17:24:57.035645+00:00", "meta": {"OBJECT_NAME": "ELEKTRO-L 2", "OBJECT_ID": "2015-074A", "EPOCH": "2025-12-27T09:30:32.887008", "MEAN_MOTION": 1.00271539, "ECCENTRICITY": 0.000372, "INCLINATION": 6.2602, "RA_OF_ASC_NODE": 72.654, "ARG_OF_PERICENTER": 207.1147, "MEAN_ANOMALY": 304.5247, "EPHEMERIS_TYPE": 0, "CLASSIFICATION_TYPE": "U", "NORAD_CAT_ID": 41105, "ELEMENT_SET_NO": 999, "REV_AT_EPOCH": 3678, "BSTAR": 0, "MEAN_MOTION_DOT": -9.8e-07, "MEAN_MOTION_DDOT": 0}, "tle": {"line1": "1 41105U 15074A   25361.39621397 -.00000098  00000+0  00000+0 0  9991", "line2": "2 41105   6.2602  72.6540 0003720 207.1147 304.5247  1.00271539 36784"}}, "geometry": {"type": "Point", "coordinates": [-16.741889615695065, -6.271518404730099]}}, {"type": "Feature", "properties": {"norad_id": 41752, "name": "INSAT-3DR", "group": "weather", "lat": 0.0051697870048760955, "lon": 71.72997434635424, "alt_km": 35843.27692045419, "timestamp": "2025-12-27T17:24:57.035657+00:00", "meta": {"OBJECT_NAME": "INSAT-3DR", "OBJECT_ID": "2016-054A", "EPOCH": "2025-12-27T09:55:45.471936", "MEAN_MOTION": 1.00271375, "ECCENTRICITY": 0.0014402, "INCLINATION": 0.0429, "RA_OF_ASC_NODE": 85.6495, "ARG_OF_PERICENTER": 186.5991, "MEAN_ANOMALY": 46.8253, "EPHEMERIS_TYPE": 0, "CLASSIFICATION_TYPE": "U", "NORAD_CAT_ID": 41752, "ELEMENT_SET_NO": 999, "REV_AT_EPOCH": 3409, "BSTAR": 0, "MEAN_MOTION_DOT": -5.4e-07, "MEAN_MOTION_DDOT": 0}, "tle": {"line1": "1 41752U 16054A   25361.41372074 -.00000054  00000+0  00000+0 0  9998", "line2": "2 41752   0.0429  85.6495 0014402 186.5991  46.8253  1.00271375 34093"}}, "geometry": {"type": "Point", "coordinates": [71.72997434635424, 0.0051697870048760955]}}]}